
# Worst residual: 27.63 km
# MJD 60500.000000 (2024 Jul  9  0:00)
2022-110B = NORAD 53766 = Ariane 5 L5117 ESC-D
1 53766U 22110B   24191.49919926  .00000000  00000-0  00000-0 0 23917
2 53766 006.8362 016.1500 8009017 082.8904 254.1808 01.45319740    05

# Worst residual: 35.21 km
# MJD 60501.000000 (2024 Jul 10  0:00)
2022-110B = NORAD 53766 = Ariane 5 L5117 ESC-D
1 53766U 22110B   24192.49919926  .00000000  00000-0  00000-0 0 23918
2 53766 006.8364 015.9877 8006571 083.3064 057.8428 01.45609529    09

# Worst residual: 20.01 km
# MJD 60502.000000 (2024 Jul 11  0:00)
2022-110B = NORAD 53766 = Ariane 5 L5117 ESC-D
1 53766U 22110B   24193.49919926  .00000000  00000-0  00000-0 0 23919
2 53766 006.8371 015.7989 8004538 083.7343 222.3096 01.45762040    02

# Worst residual: 25.78 km
# MJD 60503.000000 (2024 Jul 12  0:00)
2022-110B = NORAD 53766 = Ariane 5 L5117 ESC-D
1 53766U 22110B   24194.49919926  .00000000  00000-0  00000-0 0 23910
2 53766 006.8384 015.6029 8002791 084.1869 027.3507 01.45938204    04

# Worst residual: 13.39 km
# MJD 60504.000000 (2024 Jul 13  0:00)
2022-110B = NORAD 53766 = Ariane 5 L5117 ESC-D
1 53766U 22110B   24195.49919926  .00000000  00000-0  00000-0 0 23911
2 53766 006.8407 015.4443 8001235 084.5775 193.0065 01.46081274    07

# Worst residual: 33.54 km
# MJD 60505.000000 (2024 Jul 14  0:00)
2022-110B = NORAD 53766 = Ariane 5 L5117 ESC-D
1 53766U 22110B   24196.49919926  .00000000  00000-0  00000-0 0 24238
2 53766 006.8410 015.1527 7997343 085.1384 358.9525 01.46228999    07

# Worst residual: 14.62 km
# MJD 60506.000000 (2024 Jul 15  0:00)
2022-110B = NORAD 53766 = Ariane 5 L5117 ESC-D
1 53766U 22110B   24197.49919926  .00000000  00000-0  00000-0 0 24239
2 53766 006.8428 014.9557 7995061 085.5699 165.7176 01.46408864    01

# Worst residual: 41.44 km
# MJD 60507.000000 (2024 Jul 16  0:00)
2022-110B = NORAD 53766 = Ariane 5 L5117 ESC-D
1 53766U 22110B   24198.49919926  .00000000  00000-0  00000-0 0 24230
2 53766 006.8436 014.7787 7993964 086.0077 333.0457 01.46558541    09

# Worst residual: 14.34 km
# MJD 60508.000000 (2024 Jul 17  0:00)
2022-110B = NORAD 53766 = Ariane 5 L5117 ESC-D
1 53766U 22110B   24199.49919926  .00000000  00000-0  00000-0 0 24231
2 53766 006.8454 014.6199 7991452 086.4006 141.1488 01.46812723    08

# Worst residual: 50.43 km
# MJD 60509.000000 (2024 Jul 18  0:00)
2022-110B = NORAD 53766 = Ariane 5 L5117 ESC-D
1 53766U 22110B   24200.49919926  .00000000  00000-0  00000-0 0 24234
2 53766 006.8421 014.3930 7990406 086.8934 309.9846 01.46996724    00

# Worst residual: 27.89 km
# MJD 60510.000000 (2024 Jul 19  0:00)
2022-110B = NORAD 53766 = Ariane 5 L5117 ESC-D
1 53766U 22110B   24201.49919926  .00000000  00000-0  00000-0 0 24235
2 53766 006.8484 014.3042 7987016 087.2247 119.8364 01.47352208    05

# Worst residual: 44.67 km
# MJD 60511.000000 (2024 Jul 20  0:00)
2022-110B = NORAD 53766 = Ariane 5 L5117 ESC-D
1 53766U 22110B   24202.49919926  .00000000  00000-0  00000-0 0 24236
2 53766 006.8495 014.1365 7985152 087.6516 290.6578 01.47555239    09

# Worst residual: 28.10 km
# MJD 60512.000000 (2024 Jul 21  0:00)
2022-110B = NORAD 53766 = Ariane 5 L5117 ESC-D
1 53766U 22110B   24203.49919926  .00000000  00000-0  00000-0 0 24237
2 53766 006.8512 013.9774 7981956 088.0576 102.4905 01.47886380    07

# Worst residual: 26.70 km
# MJD 60513.000000 (2024 Jul 22  0:00)
2022-110B = NORAD 53766 = Ariane 5 L5117 ESC-D
1 53766U 22110B   24204.49919926  .00000000  00000-0  00000-0 0 24238
2 53766 006.8512 013.8328 7979609 088.4592 275.1227 01.48030597    02

# Worst residual: 20.77 km
# MJD 60514.000000 (2024 Jul 23  0:00)
2022-110B = NORAD 53766 = Ariane 5 L5117 ESC-D
1 53766U 22110B   24205.49919926  .00000000  00000-0  00000-0 0 24239
2 53766 006.8515 013.6783 7977355 088.8587 088.4209 01.48235462    05

# Worst residual: 19.38 km
# MJD 60515.000000 (2024 Jul 24  0:00)
2022-110B = NORAD 53766 = Ariane 5 L5117 ESC-D
1 53766U 22110B   24206.49919926  .00000000  00000-0  00000-0 0 24230
2 53766 006.8523 013.4805 7975784 089.3091 262.1905 01.48311953    01

# Worst residual: 16.60 km
# MJD 60516.000000 (2024 Jul 25  0:00)
2022-110B = NORAD 53766 = Ariane 5 L5117 ESC-D
1 53766U 22110B   24207.49919926  .00000000  00000-0  00000-0 0 24231
2 53766 006.8541 013.2940 7974675 089.7414 076.3423 01.48442186    03

# Worst residual: 17.54 km
# MJD 60517.000000 (2024 Jul 26  0:00)
2022-110B = NORAD 53766 = Ariane 5 L5117 ESC-D
1 53766U 22110B   24208.49919926  .00000000  00000-0  00000-0 0 24232
2 53766 006.8538 013.1147 7973927 090.1712 250.8204 01.48499374    00

# Worst residual: 17.29 km
# MJD 60518.000000 (2024 Jul 27  0:00)
2022-110B = NORAD 53766 = Ariane 5 L5117 ESC-D
1 53766U 22110B   24209.49919926  .00000000  00000-0  00000-0 0 24233
2 53766 006.8538 012.9379 7973396 090.5987 065.5742 01.48608144    07
